0 COSMOS 2256
1 22691U 93038E   13281.45483763  .00000031  00000-0  10999-3 0  7047
2 22691 082.5723 298.8402 0008596 086.2456 028.6533 12.63831544936722
0 COSMOS 2256
1 22691U 93038E   13283.52177586  .00000049  00000-0  21146-3 0  7056
2 22691 082.5719 297.5163 0008568 082.0071 072.3396 12.63831663936986
0 COSMOS 2256
1 22691U 93038E   13285.57240253  .00000031  00000-0  11313-3 0  7062
2 22691 082.5717 296.2029 0008536 077.8118 041.8050 12.63831953937240
0 COSMOS 2256
1 22691U 93038E   13287.71143645 -.00000003  00000-0 -75545-4 0  7077
2 22691 082.5716 294.8325 0008498 073.6250 053.2971 12.63832151937510
0 COSMOS 2256
1 22691U 93038E   13289.99159039 -.00000006  00000-0 -92796-4 0  7084
2 22691 082.5718 293.3719 0008451 069.0591 346.9174 12.63832293937805
0 COSMOS 2256
1 22691U 93038E   13292.13214523  .00000006  00000-0 -25370-4 0  7098
2 22691 082.5721 292.0006 0008403 064.7588 005.4437 12.63832164938075
0 COSMOS 2256
1 22691U 93038E   13294.44656892  .00000021  00000-0  57565-4 0  7102
2 22691 082.5723 290.5182 0008356 059.8483 095.2516 12.63831848938366
